SENTINEL-6              
1 46984U 20086A   24266.59232274 -.00000047  00000+0  60990-4 0  9990
2 46984  66.0449   8.9587 0007788 269.2164  90.7959 12.80928190179421
